start=new Date('2023-04-20T00:00:00.000Z').valueOf();
sats=[{"MEAN_MOTION_DDOT":"0.0000000000000","TLE_LINE2":"2 46743  53.0555  20.1284 0001554  74.9259 285.1902 15.06448877137588","MEAN_MOTION_DOT":"0.00037477","APOAPSIS":"548.140","LAUNCH_DATE":"2020-10-24","MEAN_MOTION":"15.06448877","SITE":"AFETR","EPHEMERIS_TYPE":"0","RCS_SIZE":"LARGE","PERIAPSIS":"545.988","MEAN_ANOMALY":"285.1902","ELEMENT_SET_NO":"999","SEMIMAJOR_AXIS":"6925.199","CENTER_NAME":"EARTH","OBJECT_TYPE":"PAYLOAD","TLE_LINE1":"1 46743U 20074E   23109.14825665  .00037477  00000-0  25182-2 0  9997","GP_ID":"230362637","NORAD_CAT_ID":"46743","RA_OF_ASC_NODE":"20.1284","REF_FRAME":"TEME","COUNTRY_CODE":"US","ARG_OF_PERICENTER":"74.9259","FILE":"3890383","EPOCH":"2023-04-19T03:33:29.374560","DECAY_DATE":null,"INCLINATION":"53.0555","PERIOD":"95.589","CLASSIFICATION_TYPE":"U","OBJECT_ID":"2020-074E","MEAN_ELEMENT_THEORY":"SGP4","ECCENTRICITY":"0.00015540","TIME_SYSTEM":"UTC","REV_AT_EPOCH":"13758","OBJECT_NAME":"STARLINK-1892","BSTAR":"0.00251820000000"},{"OBJECT_NAME":"STARLINK-1894","BSTAR":"0.00278870000000","TIME_SYSTEM":"UTC","ECCENTRICITY":"0.00007740","MEAN_ELEMENT_THEORY":"SGP4","REV_AT_EPOCH":"13758","DECAY_DATE":null,"INCLINATION":"53.0557","OBJECT_ID":"2020-074F","CLASSIFICATION_TYPE":"U","PERIOD":"95.594","EPOCH":"2023-04-19T03:58:38.366976","FILE":"3890383","REF_FRAME":"TEME","COUNTRY_CODE":"US","ARG_OF_PERICENTER":"138.9160","RA_OF_ASC_NODE":"20.0373","NORAD_CAT_ID":"46744","GP_ID":"230362887","TLE_LINE1":"1 46744U 20074F   23109.16572184  .00041465  00000-0  27887-2 0  9991","OBJECT_TYPE":"PAYLOAD","CENTER_NAME":"EARTH","ELEMENT_SET_NO":"999","MEAN_ANOMALY":"221.1887","SEMIMAJOR_AXIS":"6925.448","PERIAPSIS":"546.777","RCS_SIZE":"LARGE","EPHEMERIS_TYPE":"0","MEAN_MOTION":"15.06367573","SITE":"AFETR","APOAPSIS":"547.849","LAUNCH_DATE":"2020-10-24","MEAN_MOTION_DDOT":"0.0000000000000","MEAN_MOTION_DOT":"0.00041465","TLE_LINE2":"2 46744  53.0557  20.0373 0000774 138.9160 221.1887 15.06367573137589"},{"MEAN_MOTION":"15.06372780","SITE":"AFETR","EPHEMERIS_TYPE":"0","RCS_SIZE":"LARGE","PERIAPSIS":"546.634","MEAN_MOTION_DDOT":"0.0000000000000","MEAN_MOTION_DOT":"0.00031747","TLE_LINE2":"2 46746  53.0555  20.2731 0000958  89.9846 270.1253 15.06372780137575","APOAPSIS":"547.960","LAUNCH_DATE":"2020-10-24","OBJECT_TYPE":"PAYLOAD","GP_ID":"230363636","TLE_LINE1":"1 46746U 20074H   23109.11508642  .00031747  00000-0  21422-2 0  9997","NORAD_CAT_ID":"46746","MEAN_ANOMALY":"270.1253","ELEMENT_SET_NO":"999","SEMIMAJOR_AXIS":"6925.432","CENTER_NAME":"EARTH","FILE":"3890383","EPOCH":"2023-04-19T02:45:43.466688","RA_OF_ASC_NODE":"20.2731","REF_FRAME":"TEME","ARG_OF_PERICENTER":"89.9846","COUNTRY_CODE":"US","OBJECT_NAME":"STARLINK-1905","BSTAR":"0.00214220000000","INCLINATION":"53.0555","DECAY_DATE":null,"PERIOD":"95.594","CLASSIFICATION_TYPE":"U","OBJECT_ID":"2020-074H","MEAN_ELEMENT_THEORY":"SGP4","TIME_SYSTEM":"UTC","ECCENTRICITY":"0.00009580","REV_AT_EPOCH":"13757"},{"LAUNCH_DATE":"2020-10-24","APOAPSIS":"548.510","TLE_LINE2":"2 46747  53.0568  20.0657 0001287 104.7058 255.4074 15.06267985137580","MEAN_MOTION_DOT":"0.00061706","MEAN_MOTION_DDOT":"0.0000000000000","RCS_SIZE":"LARGE","EPHEMERIS_TYPE":"0","PERIAPSIS":"546.727","SITE":"AFETR","MEAN_MOTION":"15.06267985","CENTER_NAME":"EARTH","SEMIMAJOR_AXIS":"6925.753","MEAN_ANOMALY":"255.4074","ELEMENT_SET_NO":"999","NORAD_CAT_ID":"46747","OBJECT_TYPE":"PAYLOAD","GP_ID":"230363878","TLE_LINE1":"1 46747U 20074J   23109.16295035  .00061706  00000-0  41401-2 0  9999","ARG_OF_PERICENTER":"104.7058","COUNTRY_CODE":"US","REF_FRAME":"TEME","RA_OF_ASC_NODE":"20.0657","FILE":"3890383","EPOCH":"2023-04-19T03:54:38.910240","REV_AT_EPOCH":"13758","MEAN_ELEMENT_THEORY":"SGP4","TIME_SYSTEM":"UTC","ECCENTRICITY":"0.00012870","PERIOD":"95.601","OBJECT_ID":"2020-074J","CLASSIFICATION_TYPE":"U","DECAY_DATE":null,"INCLINATION":"53.0568","BSTAR":"0.00414010000000","OBJECT_NAME":"STARLINK-1908"},{"CENTER_NAME":"EARTH","ELEMENT_SET_NO":"999","MEAN_ANOMALY":"237.1799","SEMIMAJOR_AXIS":"6925.442","NORAD_CAT_ID":"46748","GP_ID":"230362138","TLE_LINE1":"1 46748U 20074K   23109.03768517  .00061614  00000-0  41227-2 0  9990","OBJECT_TYPE":"PAYLOAD","APOAPSIS":"547.945","LAUNCH_DATE":"2020-10-24","MEAN_MOTION_DDOT":"0.0000000000000","TLE_LINE2":"2 46748  53.0568  20.6233 0000921 122.9278 237.1799 15.06369598137569","MEAN_MOTION_DOT":"0.00061614","PERIAPSIS":"546.669","RCS_SIZE":"LARGE","EPHEMERIS_TYPE":"0","MEAN_MOTION":"15.06369598","SITE":"AFETR","TIME_SYSTEM":"UTC","ECCENTRICITY":"0.00009210","MEAN_ELEMENT_THEORY":"SGP4","REV_AT_EPOCH":"13756","DECAY_DATE":null,"INCLINATION":"53.0568","OBJECT_ID":"2020-074K","CLASSIFICATION_TYPE":"U","PERIOD":"95.594","OBJECT_NAME":"STARLINK-1910","BSTAR":"0.00412270000000","REF_FRAME":"TEME","ARG_OF_PERICENTER":"122.9278","COUNTRY_CODE":"US","RA_OF_ASC_NODE":"20.6233","EPOCH":"2023-04-19T00:54:15.998688","FILE":"3890383"},{"NORAD_CAT_ID":"46749","TLE_LINE1":"1 46749U 20074L   23109.17776530  .00097600  00000-0  64896-2 0  9991","GP_ID":"230362388","OBJECT_TYPE":"PAYLOAD","CENTER_NAME":"EARTH","ELEMENT_SET_NO":"999","MEAN_ANOMALY":"253.5342","SEMIMAJOR_AXIS":"6925.496","PERIAPSIS":"546.728","RCS_SIZE":"LARGE","EPHEMERIS_TYPE":"0","MEAN_MOTION":"15.06351845","SITE":"AFETR","APOAPSIS":"547.994","LAUNCH_DATE":"2020-10-24","MEAN_MOTION_DDOT":"0.0000000000000","MEAN_MOTION_DOT":"0.00097600","TLE_LINE2":"2 46749  53.0548  19.9925 0000914 106.5748 253.5342 15.06351845137583","OBJECT_NAME":"STARLINK-1911","BSTAR":"0.00648960000000","ECCENTRICITY":"0.00009140","TIME_SYSTEM":"UTC","MEAN_ELEMENT_THEORY":"SGP4","REV_AT_EPOCH":"13758","INCLINATION":"53.0548","DECAY_DATE":null,"OBJECT_ID":"2020-074L","CLASSIFICATION_TYPE":"U","PERIOD":"95.595","EPOCH":"2023-04-19T04:15:58.921920","FILE":"3890383","REF_FRAME":"TEME","COUNTRY_CODE":"US","ARG_OF_PERICENTER":"106.5748","RA_OF_ASC_NODE":"19.9925"},{"NORAD_CAT_ID":"46751","GP_ID":"230363139","TLE_LINE1":"1 46751U 20074N   23109.10771021  .00034005  00000-0  22922-2 0  9991","OBJECT_TYPE":"PAYLOAD","CENTER_NAME":"EARTH","ELEMENT_SET_NO":"999","MEAN_ANOMALY":"256.2417","SEMIMAJOR_AXIS":"6925.420","PERIAPSIS":"546.217","EPHEMERIS_TYPE":"0","RCS_SIZE":"LARGE","MEAN_MOTION":"15.06376735","SITE":"AFETR","APOAPSIS":"548.353","LAUNCH_DATE":"2020-10-24","MEAN_MOTION_DDOT":"0.0000000000000","TLE_LINE2":"2 46751  53.0546  20.3068 0001542 103.8744 256.2417 15.06376735137579","MEAN_MOTION_DOT":"0.00034005","OBJECT_NAME":"STARLINK-1920","BSTAR":"0.00229220000000","TIME_SYSTEM":"UTC","ECCENTRICITY":"0.00015420","MEAN_ELEMENT_THEORY":"SGP4","REV_AT_EPOCH":"13757","DECAY_DATE":null,"INCLINATION":"53.0546","CLASSIFICATION_TYPE":"U","OBJECT_ID":"2020-074N","PERIOD":"95.594","EPOCH":"2023-04-19T02:35:06.162144","FILE":"3890383","REF_FRAME":"TEME","COUNTRY_CODE":"US","ARG_OF_PERICENTER":"103.8744","RA_OF_ASC_NODE":"20.3068"},{"EPOCH":"2023-04-19T02:51:05.123520","FILE":"3890383","REF_FRAME":"TEME","COUNTRY_CODE":"US","ARG_OF_PERICENTER":"119.6082","RA_OF_ASC_NODE":"20.2579","OBJECT_NAME":"STARLINK-1921","BSTAR":"0.00336940000000","ECCENTRICITY":"0.00012150","TIME_SYSTEM":"UTC","MEAN_ELEMENT_THEORY":"SGP4","REV_AT_EPOCH":"13757","INCLINATION":"53.0552","DECAY_DATE":null,"OBJECT_ID":"2020-074P","CLASSIFICATION_TYPE":"U","PERIOD":"95.588","PERIAPSIS":"546.177","RCS_SIZE":"LARGE","EPHEMERIS_TYPE":"0","MEAN_MOTION":"15.06463818","SITE":"AFETR","APOAPSIS":"547.859","LAUNCH_DATE":"2020-10-24","MEAN_MOTION_DDOT":"0.0000000000000","MEAN_MOTION_DOT":"0.00050352","TLE_LINE2":"2 46752  53.0552  20.2579 0001215 119.6082 240.5029 15.06463818137574","NORAD_CAT_ID":"46752","TLE_LINE1":"1 46752U 20074P   23109.11880930  .00050352  00000-0  33694-2 0  9994","GP_ID":"230363381","OBJECT_TYPE":"PAYLOAD","CENTER_NAME":"EARTH","ELEMENT_SET_NO":"999","MEAN_ANOMALY":"240.5029","SEMIMAJOR_AXIS":"6925.153"},{"CENTER_NAME":"EARTH","MEAN_ANOMALY":"268.9654","ELEMENT_SET_NO":"999","SEMIMAJOR_AXIS":"6925.243","NORAD_CAT_ID":"46753","OBJECT_TYPE":"PAYLOAD","TLE_LINE1":"1 46753U 20074Q   23109.01925174  .00045460  00000-0  30484-2 0  9992","GP_ID":"230362638","APOAPSIS":"548.013","LAUNCH_DATE":"2020-10-24","MEAN_MOTION_DDOT":"0.0000000000000","MEAN_MOTION_DOT":"0.00045460","TLE_LINE2":"2 46753  53.0548  20.7048 0001307  91.1485 268.9654 15.06434417137569","EPHEMERIS_TYPE":"0","RCS_SIZE":"LARGE","PERIAPSIS":"546.203","MEAN_MOTION":"15.06434417","SITE":"AFETR","MEAN_ELEMENT_THEORY":"SGP4","TIME_SYSTEM":"UTC","ECCENTRICITY":"0.00013070","REV_AT_EPOCH":"13756","INCLINATION":"53.0548","DECAY_DATE":null,"PERIOD":"95.590","CLASSIFICATION_TYPE":"U","OBJECT_ID":"2020-074Q","OBJECT_NAME":"STARLINK-1922","BSTAR":"0.00304840000000","REF_FRAME":"TEME","COUNTRY_CODE":"US","ARG_OF_PERICENTER":"91.1485","RA_OF_ASC_NODE":"20.7048","FILE":"3890383","EPOCH":"2023-04-19T00:27:43.350336"},{"EPOCH":"2023-04-19T00:38:18.687552","FILE":"3890383","REF_FRAME":"TEME","COUNTRY_CODE":"US","ARG_OF_PERICENTER":"91.0096","RA_OF_ASC_NODE":"20.6722","OBJECT_NAME":"STARLINK-1923","BSTAR":"0.00251080000000","TIME_SYSTEM":"UTC","ECCENTRICITY":"0.00009960","MEAN_ELEMENT_THEORY":"SGP4","REV_AT_EPOCH":"13756","INCLINATION":"53.0551","DECAY_DATE":null,"CLASSIFICATION_TYPE":"U","OBJECT_ID":"2020-074R","PERIOD":"95.591","PERIAPSIS":"546.469","RCS_SIZE":"LARGE","EPHEMERIS_TYPE":"0","MEAN_MOTION":"15.06417795","SITE":"AFETR","APOAPSIS":"547.849","LAUNCH_DATE":"2020-10-24","MEAN_MOTION_DDOT":"0.0000000000000","MEAN_MOTION_DOT":"0.00037333","TLE_LINE2":"2 46754  53.0551  20.6722 0000996  91.0096 269.1007 15.06417795137567","NORAD_CAT_ID":"46754","GP_ID":"230362888","TLE_LINE1":"1 46754U 20074R   23109.02660518  .00037333  00000-0  25108-2 0  9999","OBJECT_TYPE":"PAYLOAD","CENTER_NAME":"EARTH","ELEMENT_SET_NO":"999","MEAN_ANOMALY":"269.1007","SEMIMAJOR_AXIS":"6925.294"}];
